[{"OBJECT_NAME":"SALSAT","OBJECT_ID":"2020-068K","EPOCH":"2026-03-09T22:26:21.804576","MEAN_MOTION":15.28191989,"ECCENTRICITY":0.00082652,"INCLINATION":97.8859,"RA_OF_ASC_NODE":66.0795,"ARG_OF_PERICENTER":295.8051,"MEAN_ANOMALY":64.2334,"EPHEMERIS_TYPE":0,"CLASSIFICATION_TYPE":"U","NORAD_CAT_ID":46495,"ELEMENT_SET_NO":999,"REV_AT_EPOCH":30019,"BSTAR":0.00040842582,"MEAN_MOTION_DOT":0.00011156,"MEAN_MOTION_DDOT":0},{"OBJECT_NAME":"STARLINK-30953","OBJECT_ID":"2023-186U","EPOCH":"2026-03-08T23:49:57.390240","MEAN_MOTION":15.27577627,"ECCENTRICITY":8.588e-5,"INCLINATION":42.9984,"RA_OF_ASC_NODE":271.4328,"ARG_OF_PERICENTER":255.1282,"MEAN_ANOMALY":104.9475,"EPHEMERIS_TYPE":0,"CLASSIFICATION_TYPE":"U","NORAD_CAT_ID":58491,"ELEMENT_SET_NO":999,"REV_AT_EPOCH":12778,"BSTAR":-6.0877705e-5,"MEAN_MOTION_DOT":-1.936e-5,"MEAN_MOTION_DDOT":0}]
